[{"OBJECT_NAME":"STARLINK-31362","OBJECT_ID":"2024-027E","EPOCH":"2026-03-09T22:45:10.128960","MEAN_MOTION":15.30188128,"ECCENTRICITY":9.209e-5,"INCLINATION":53.158,"RA_OF_ASC_NODE":308.7251,"ARG_OF_PERICENTER":112.4905,"MEAN_ANOMALY":247.6193,"EPHEMERIS_TYPE":0,"CLASSIFICATION_TYPE":"U","NORAD_CAT_ID":58935,"ELEMENT_SET_NO":999,"REV_AT_EPOCH":11736,"BSTAR":0.0002488704,"MEAN_MOTION_DOT":7.016e-5,"MEAN_MOTION_DDOT":0},{"OBJECT_NAME":"SL-3 R\/B","OBJECT_ID":"1982-027B","EPOCH":"2026-03-09T22:44:40.208640","MEAN_MOTION":15.28335844,"ECCENTRICITY":0.00065199,"INCLINATION":81.188,"RA_OF_ASC_NODE":37.4466,"ARG_OF_PERICENTER":276.581,"MEAN_ANOMALY":83.4683,"EPHEMERIS_TYPE":0,"CLASSIFICATION_TYPE":"U","NORAD_CAT_ID":13121,"ELEMENT_SET_NO":999,"REV_AT_EPOCH":39859,"BSTAR":0.00030526741,"MEAN_MOTION_DOT":8.453e-5,"MEAN_MOTION_DDOT":0}]
